TJS-7                   
1 49115U 21077A   26183.42034461 -.00000113  00000+0  00000+0 0  9995
2 49115   0.3179 264.4809 0003484 116.1045 311.7420  1.00271413  9705
CHINASAT 9B             
1 49125U 21080A   26183.38877692  .00000000  00000+0  00000+0 0  9990
2 49125   0.0187  42.5109 0002517  81.3761  37.8817  1.00265449 17802
SHIJIAN-21 (SJ-21)      
1 49330U 21094A   26183.77628127 -.00000340  00000+0  00000+0 0  9991
2 49330   5.1475  61.0880 0049797 168.0271  98.9516  1.00263612  5517
SES-17                  
1 49332U 21095A   26183.56933301 -.00000261  00000+0  00000+0 0  9996
2 49332   0.0234  42.6033 0001168  57.4223 318.4393  1.00269644 18001
SYRACUSE 4A             
1 49333U 21095B   26183.80545439  .00000000  00000+0  00000+0 0  9995
2 49333   0.0227  39.1044 0001628  51.3555 165.8562  1.00276092 18107
QZS-1R (MICHIBIKI-1R)   
1 49336U 21096A   26183.60705221 -.00000270  00000+0  00000+0 0  9994
2 49336  37.4911  79.3558 0755908 272.0505 280.6356  1.00250822 17169
ZHONGXING-1D            
1 49505U 21114A   26182.30461367 -.00000326  00000+0  00000+0 0  9991
2 49505   0.0467 124.1238 0000571  39.3045 355.7759  1.00270455 16967
STPSAT-6                
1 49817U 21118A   26183.63175992 -.00000035  00000+0  00000+0 0  9991
2 49817   0.3584  85.2643 0000907 267.5814  43.5404  1.00270745 16720
EXPRESS AMU-7           
1 50001U 21123A   26183.90576619 -.00000232  00000+0  00000+0 0  9994
2 50001   0.0221 288.5231 0000358 122.7429 340.7487  1.00272172 16692
EXPRESS AMU-3           
1 50002U 21123B   26182.93650718  .00000000  00000+0  00000+0 0  9992
2 50002   0.0210 332.8059 0000361  41.4792 345.7159  1.00271664  7186
TIANLIAN 2-02           
1 50005U 21124A   26183.83030464 -.00000003  00000+0  00000+0 0  9990
2 50005   0.8404  85.8949 0000814 175.4930 129.3717  1.00272681 16771
TURKSAT 5B              
1 50212U 21126A   26183.83070177  .00000157  00000+0  00000+0 0  9996
2 50212   0.0684 341.1735 0002571  18.6417 262.0942  1.00271758 16458
INMARSAT 6-F1           
1 50319U 21128A   26183.79488583 -.00000161  00000+0  00000+0 0  9991
2 50319   0.0164 328.9690 0000355 176.6559 145.1152  1.00270399 16412
SHIYAN-12 01 (SY-12 01) 
1 50321U 21129A   26183.72950594  .00000150  00000+0  00000+0 0  9991
2 50321   3.7121  79.7076 0002916 293.3389 217.6296  1.00046111 16653
SHIYAN-12 02 (SY-12 02) 
1 50322U 21129B   26183.76386029 -.00000326  00000+0  00000+0 0  9998
2 50322   3.7116  79.7099 0003122  60.1473 156.9356  1.00484340 16659
TJS-9                   
1 50574U 21135A   26183.90258561 -.00000288  00000+0  00000+0 0  9996
2 50574   0.0156  80.9980 0003731 342.8559 319.2284  1.00269461 16587
USA 324                 
1 51280U 22006A   26157.08795008 -.00000058  00000+0  00000+0 0  9996
2 51280   0.7690  83.2777 0002840 165.6787 110.1567  1.00289779 16021
GOES 18                 
1 51850U 22021A   26183.69804314  .00000107  00000+0  00000+0 0  9997
2 51850   0.0153 195.2020 0000551 306.4734 253.3476  1.00271499  6747
ZHONGXING-6D            
1 52255U 22038A   26182.87501058 -.00000343  00000+0  00000+0 0  9996
2 52255   0.0235  83.0944 0000445 106.8355 170.0646  1.00271901 15573
NILESAT 301             
1 52817U 22061A   26183.72379264 -.00000047  00000+0  00000+0 0  9994
2 52817   0.0456   9.5344 0004581  54.4377 110.3746  1.00273031 14894
CMS-02 (GSAT-24)        
1 52903U 22067A   26183.79488623 -.00000154  00000+0  00000+0 0  9992
2 52903   0.0244 261.0634 0001325 121.0095 267.9149  1.00270516 14760
MEASAT 3D               
1 52904U 22067B   26183.80150777 -.00000231  00000+0  00000+0 0  9997
2 52904   0.0339 327.8791 0000574 104.4021 228.6143  1.00270923 14805
SES-22                  
1 52933U 22071A   26183.69760979  .00000115  00000+0  00000+0 0  9992
2 52933   0.0174   9.6819 0001245  87.8030 295.3784  1.00272574  7673
WFOV (USA 332)          
1 52940U 22073A   26183.74880919 -.00000353  00000+0  00000+0 0  9990
2 52940   3.7484  78.3378 0001261 236.0241 355.2881  1.00274964 14529
TIANLIAN 2-03           
1 53100U 22078A   26183.65600308  .00000082  00000+0  00000+0 0  9994
2 53100   0.7099  77.3056 0000997 345.8065 104.3006  1.00273024 14705
SBIRS GEO-6 (USA 336)   
1 53355U 22092A   26183.75270920 -.00000279  00000+0  00000+0 0  9995
2 53355   3.2322 317.7284 0002148 140.2682 232.7781  1.00272117 14393
EUTELSAT KONNECT VHTS   
1 53765U 22110A   26183.87520402  .00000028  00000+0  00000+0 0  9998
2 53765   0.0592  98.8696 0003068 341.5606 158.2763  1.00269803  6997
ZHONGXING-1E            
1 53813U 22112A   26183.88386229 -.00000138  00000+0  00000+0 0  9995
2 53813   0.0380 141.7192 0000219  94.4460  84.3575  1.00271099 14003
SES-20                  
1 53960U 22123A   26183.85722998 -.00000090  00000+0  00000+0 0  9991
2 53960   0.0202  63.8433 0002126  32.9601  29.5718  1.00270139 13692
SES-21                  
1 53961U 22123B   26183.77047596  .00000000  00000+0  00000+0 0  9997
2 53961   0.0383  22.7476 0000790  67.8869 336.6206  1.00267332  7364
GALAXY 33 (G-33)        
1 54026U 22128A   26183.69882314  .00000090  00000+0  00000+0 0  9990
2 54026   0.0123  43.2438 0002250  55.0472 301.0264  1.00271772 13895
GALAXY 34 (G-34)        
1 54027U 22128B   26183.85030603  .00000070  00000+0  00000+0 0  9993
2 54027   0.0130  31.8533 0001956  68.7137 357.4298  1.00268570 14079
