OBJECT_NAME,OBJECT_ID,EPOCH,MEAN_MOTION,ECCENTRICITY,INCLINATION,RA_OF_ASC_NODE,ARG_OF_PERICENTER,MEAN_ANOMALY,EPHEMERIS_TYPE,CLASSIFICATION_TYPE,NORAD_CAT_ID,ELEMENT_SET_NO,REV_AT_EPOCH,BSTAR,MEAN_MOTION_DOT,MEAN_MOTION_DDOT
TJS-7,2021-077A,2026-07-02T10:05:17.774304,1.00271413,.0003484,0.3179,264.4809,116.1045,311.7420,0,U,49115,999,970,0,-.113E-5,0
CHINASAT 9B,2021-080A,2026-07-02T09:19:50.325888,1.00265449,.0002517,0.0187,42.5109,81.3761,37.8817,0,U,49125,999,1780,0,0,0
SHIJIAN-21 (SJ-21),2021-094A,2026-07-02T18:37:50.701728,1.00263612,.0049797,5.1475,61.0880,168.0271,98.9516,0,U,49330,999,551,0,-.34E-5,0
SES-17,2021-095A,2026-07-02T13:39:50.372064,1.00269644,.0001168,0.0234,42.6033,57.4223,318.4393,0,U,49332,999,1800,0,-.261E-5,0
SYRACUSE 4A,2021-095B,2026-07-02T19:19:51.259296,1.00276092,.0001628,0.0227,39.1044,51.3555,165.8562,0,U,49333,999,1810,0,0,0
QZS-1R (MICHIBIKI-1R),2021-096A,2026-07-02T14:34:09.310944,1.00250822,.0755908,37.4911,79.3558,272.0505,280.6356,0,U,49336,999,1716,0,-.27E-5,0
ZHONGXING-1D,2021-114A,2026-07-01T07:18:38.621088,1.00270455,.00005715,0.0467,124.1238,39.3045,355.7759,0,U,49505,999,1696,0,-.326E-5,0
STPSAT-6,2021-118A,2026-07-02T15:09:44.057088,1.00270745,.0000907,0.3584,85.2643,267.5814,43.5404,0,U,49817,999,1672,0,-.35E-6,0
EXPRESS AMU-7,2021-123A,2026-07-02T21:44:18.198816,1.00272172,.0000358,0.0221,288.5231,122.7429,340.7487,0,U,50001,999,1669,0,-.232E-5,0
EXPRESS AMU-3,2021-123B,2026-07-01T22:28:34.220352,1.00271664,.0000361,0.0210,332.8059,41.4792,345.7159,0,U,50002,999,718,0,0,0
TIANLIAN 2-02,2021-124A,2026-07-02T19:55:38.320896,1.00272681,.0000814,0.8404,85.8949,175.4930,129.3717,0,U,50005,999,1677,0,-.3E-7,0
TURKSAT 5B,2021-126A,2026-07-02T19:56:12.632928,1.00271758,.0002571,0.0684,341.1735,18.6417,262.0942,0,U,50212,999,1645,0,.157E-5,0
INMARSAT 6-F1,2021-128A,2026-07-02T19:04:38.135712,1.00270399,.0000355,0.0164,328.9690,176.6559,145.1152,0,U,50319,999,1641,0,-.161E-5,0
SHIYAN-12 01 (SY-12 01),2021-129A,2026-07-02T17:30:29.313216,1.00046111,.0002916,3.7121,79.7076,293.3389,217.6296,0,U,50321,999,1665,0,.15E-5,0
SHIYAN-12 02 (SY-12 02),2021-129B,2026-07-02T18:19:57.529056,1.00484340,.0003122,3.7116,79.7099,60.1473,156.9356,0,U,50322,999,1665,0,-.326E-5,0
TJS-9,2021-135A,2026-07-02T21:39:43.396704,1.00269461,.0003731,0.0156,80.9980,342.8559,319.2284,0,U,50574,999,1658,0,-.288E-5,0
USA 324,2022-006A,2026-06-06T02:06:38.886912,1.00289779,.000284,0.7690,83.2777,165.6787,110.1567,0,U,51280,999,1602,0,-.58E-6,0
GOES 18,2022-021A,2026-07-02T16:45:10.927296,1.00271499,.0000551,0.0153,195.2020,306.4734,253.3476,0,U,51850,999,674,0,.107E-5,0
ZHONGXING-6D,2022-038A,2026-07-01T21:00:00.914112,1.00271901,.00004454,0.0235,83.0944,106.8355,170.0646,0,U,52255,999,1557,0,-.343E-5,0
NILESAT 301,2022-061A,2026-07-02T17:22:15.684096,1.00273031,.0004581,0.0456,9.5344,54.4377,110.3746,0,U,52817,999,1489,0,-.47E-6,0
CMS-02 (GSAT-24),2022-067A,2026-07-02T19:04:38.170272,1.00270516,.0001325,0.0244,261.0634,121.0095,267.9149,0,U,52903,999,1476,0,-.154E-5,0
MEASAT 3D,2022-067B,2026-07-02T19:14:10.271328,1.00270923,.0000574,0.0339,327.8791,104.4021,228.6143,0,U,52904,999,1480,0,-.231E-5,0
SES-22,2022-071A,2026-07-02T16:44:33.485856,1.00272574,.0001245,0.0174,9.6819,87.8030,295.3784,0,U,52933,999,767,0,.115E-5,0
WFOV (USA 332),2022-073A,2026-07-02T17:58:17.114016,1.00274964,.0001261,3.7484,78.3378,236.0241,355.2881,0,U,52940,999,1452,0,-.353E-5,0
TIANLIAN 2-03,2022-078A,2026-07-02T15:44:38.666112,1.00273024,.0000997,0.7099,77.3056,345.8065,104.3006,0,U,53100,999,1470,0,.82E-6,0
SBIRS GEO-6 (USA 336),2022-092A,2026-07-02T18:03:54.074880,1.00272117,.0002148,3.2322,317.7284,140.2682,232.7781,0,U,53355,999,1439,0,-.279E-5,0
EUTELSAT KONNECT VHTS,2022-110A,2026-07-02T21:00:17.627328,1.00269803,.0003068,0.0592,98.8696,341.5606,158.2763,0,U,53765,999,699,0,.28E-6,0
ZHONGXING-1E,2022-112A,2026-07-02T21:12:45.701856,1.00271099,.0000219,0.0380,141.7192,94.4460,84.3575,0,U,53813,999,1400,0,-.138E-5,0
SES-20,2022-123A,2026-07-02T20:34:24.670272,1.00270139,.0002126,0.0202,63.8433,32.9601,29.5718,0,U,53960,999,1369,0,-.9E-6,0
SES-21,2022-123B,2026-07-02T18:29:29.122944,1.00267332,.000079,0.0383,22.7476,67.8869,336.6206,0,U,53961,999,736,0,0,0
GALAXY 33 (G-33),2022-128A,2026-07-02T16:46:18.319296,1.00271772,.000225,0.0123,43.2438,55.0472,301.0264,0,U,54026,999,1389,0,.9E-6,0
GALAXY 34 (G-34),2022-128B,2026-07-02T20:24:26.440992,1.00268570,.0001956,0.0130,31.8533,68.7137,357.4298,0,U,54027,999,1407,0,.7E-6,0
